KUIPER-00089            
1 64834U 25151U   26010.73425148 -.00001130  00000+0 -11925-3 0  9999
2 64834  51.8995 181.8656 0001929 137.5429 222.5683 14.79915707 26939
KUIPER-00090            
1 64835U 25151V   26011.13359639  .00003169  00000+0  48120-3 0  9995
2 64835  51.8981 172.4996 0004389 151.9643 208.1555 14.76501691 27095
KUIPER-00091            
1 64836U 25151W   26010.73701639  .00014228  00000+0  18904-2 0  9996
2 64836  51.9000 179.3610 0007697 101.7553 258.4273 14.79940146 26961
KUIPER-00092            
1 64837U 25151X   26011.20156704 -.00004021  00000+0 -49885-3 0  9992
2 64837  51.9014 184.8027 0003348 104.7940 255.3394 14.79908386 28144
KUIPER-00093            
1 64838U 25151Y   26011.19894582  .00003386  00000+0  47280-3 0  9992
2 64838  51.8997 187.3012 0003217 105.1322 254.9996 14.79948230 26895
KUIPER-00094            
1 64839U 25151Z   26011.14072380  .00006949  00000+0  50027-3 0  9993
2 64839  51.8893 167.0862 0004591  84.0026 276.1471 15.05204742 27170
KUIPER-00081            
1 65132U 25171A   26011.32157531  .00020596  00000+0  27215-2 0  9990
2 65132  51.9006  41.7534 0001332  60.3381 299.7714 14.79945909 24545
KUIPER-00088            
1 65133U 25171B   26011.33335648 -.00023054  00000+0 -28963-2 0  9994
2 65133  51.9003  59.8308 0001112 134.4099  67.7090 14.81475345  5653
