<?xml version="1.0" encoding="UTF-8"?>
<ndm xmlns:xsi="http://www.w3.org/2001/XMLSchema-instance" xsi:noNamespaceSchemaLocation="https://sanaregistry.org/r/ndmxml_unqualified/ndmxml-2.0.0-master-2.0.xsd">
<omm id="CCSDS_OMM_VERS" version="2.0">
<header><CREATION_DATE/><ORIGINATOR/></header><body><segment><metadata><OBJECT_NAME>KUIPER-00089</OBJECT_NAME><OBJECT_ID>2025-151U</OBJECT_ID><CENTER_NAME>EARTH</CENTER_NAME><REF_FRAME>TEME</REF_FRAME><TIME_SYSTEM>UTC</TIME_SYSTEM><MEAN_ELEMENT_THEORY>SGP4</MEAN_ELEMENT_THEORY></metadata><data><meanElements><EPOCH>2026-01-10T17:37:19.327872</EPOCH><MEAN_MOTION>14.79915707</MEAN_MOTION><ECCENTRICITY>.00019291</ECCENTRICITY><INCLINATION>51.8995</INCLINATION><RA_OF_ASC_NODE>181.8656</RA_OF_ASC_NODE><ARG_OF_PERICENTER>137.5429</ARG_OF_PERICENTER><MEAN_ANOMALY>222.5683</MEAN_ANOMALY></meanElements><tleParameters><EPHEMERIS_TYPE>0</EPHEMERIS_TYPE><CLASSIFICATION_TYPE>U</CLASSIFICATION_TYPE><NORAD_CAT_ID>64834</NORAD_CAT_ID><ELEMENT_SET_NO>999</ELEMENT_SET_NO><REV_AT_EPOCH>2693</REV_AT_EPOCH><BSTAR>-.11925319E-3</BSTAR><MEAN_MOTION_DOT>-.113E-4</MEAN_MOTION_DOT><MEAN_MOTION_DDOT>0</MEAN_MOTION_DDOT></tleParameters></data></segment></body></omm>
<omm id="CCSDS_OMM_VERS" version="2.0">
<header><CREATION_DATE/><ORIGINATOR/></header><body><segment><metadata><OBJECT_NAME>KUIPER-00090</OBJECT_NAME><OBJECT_ID>2025-151V</OBJECT_ID><CENTER_NAME>EARTH</CENTER_NAME><REF_FRAME>TEME</REF_FRAME><TIME_SYSTEM>UTC</TIME_SYSTEM><MEAN_ELEMENT_THEORY>SGP4</MEAN_ELEMENT_THEORY></metadata><data><meanElements><EPOCH>2026-01-11T03:12:22.728096</EPOCH><MEAN_MOTION>14.76501691</MEAN_MOTION><ECCENTRICITY>.00043897</ECCENTRICITY><INCLINATION>51.8981</INCLINATION><RA_OF_ASC_NODE>172.4996</RA_OF_ASC_NODE><ARG_OF_PERICENTER>151.9643</ARG_OF_PERICENTER><MEAN_ANOMALY>208.1555</MEAN_ANOMALY></meanElements><tleParameters><EPHEMERIS_TYPE>0</EPHEMERIS_TYPE><CLASSIFICATION_TYPE>U</CLASSIFICATION_TYPE><NORAD_CAT_ID>64835</NORAD_CAT_ID><ELEMENT_SET_NO>999</ELEMENT_SET_NO><REV_AT_EPOCH>2709</REV_AT_EPOCH><BSTAR>.48119657E-3</BSTAR><MEAN_MOTION_DOT>.3169E-4</MEAN_MOTION_DOT><MEAN_MOTION_DDOT>0</MEAN_MOTION_DDOT></tleParameters></data></segment></body></omm>
<omm id="CCSDS_OMM_VERS" version="2.0">
<header><CREATION_DATE/><ORIGINATOR/></header><body><segment><metadata><OBJECT_NAME>KUIPER-00091</OBJECT_NAME><OBJECT_ID>2025-151W</OBJECT_ID><CENTER_NAME>EARTH</CENTER_NAME><REF_FRAME>TEME</REF_FRAME><TIME_SYSTEM>UTC</TIME_SYSTEM><MEAN_ELEMENT_THEORY>SGP4</MEAN_ELEMENT_THEORY></metadata><data><meanElements><EPOCH>2026-01-10T17:41:18.216096</EPOCH><MEAN_MOTION>14.79940146</MEAN_MOTION><ECCENTRICITY>.00076971</ECCENTRICITY><INCLINATION>51.9000</INCLINATION><RA_OF_ASC_NODE>179.3610</RA_OF_ASC_NODE><ARG_OF_PERICENTER>101.7553</ARG_OF_PERICENTER><MEAN_ANOMALY>258.4273</MEAN_ANOMALY></meanElements><tleParameters><EPHEMERIS_TYPE>0</EPHEMERIS_TYPE><CLASSIFICATION_TYPE>U</CLASSIFICATION_TYPE><NORAD_CAT_ID>64836</NORAD_CAT_ID><ELEMENT_SET_NO>999</ELEMENT_SET_NO><REV_AT_EPOCH>2696</REV_AT_EPOCH><BSTAR>.18904221E-2</BSTAR><MEAN_MOTION_DOT>.14228E-3</MEAN_MOTION_DOT><MEAN_MOTION_DDOT>0</MEAN_MOTION_DDOT></tleParameters></data></segment></body></omm>
<omm id="CCSDS_OMM_VERS" version="2.0">
<header><CREATION_DATE/><ORIGINATOR/></header><body><segment><metadata><OBJECT_NAME>KUIPER-00092</OBJECT_NAME><OBJECT_ID>2025-151X</OBJECT_ID><CENTER_NAME>EARTH</CENTER_NAME><REF_FRAME>TEME</REF_FRAME><TIME_SYSTEM>UTC</TIME_SYSTEM><MEAN_ELEMENT_THEORY>SGP4</MEAN_ELEMENT_THEORY></metadata><data><meanElements><EPOCH>2026-01-11T04:50:15.392256</EPOCH><MEAN_MOTION>14.79908386</MEAN_MOTION><ECCENTRICITY>.0003348</ECCENTRICITY><INCLINATION>51.9014</INCLINATION><RA_OF_ASC_NODE>184.8027</RA_OF_ASC_NODE><ARG_OF_PERICENTER>104.7940</ARG_OF_PERICENTER><MEAN_ANOMALY>255.3394</MEAN_ANOMALY></meanElements><tleParameters><EPHEMERIS_TYPE>0</EPHEMERIS_TYPE><CLASSIFICATION_TYPE>U</CLASSIFICATION_TYPE><NORAD_CAT_ID>64837</NORAD_CAT_ID><ELEMENT_SET_NO>999</ELEMENT_SET_NO><REV_AT_EPOCH>2814</REV_AT_EPOCH><BSTAR>-.4988518E-3</BSTAR><MEAN_MOTION_DOT>-.4021E-4</MEAN_MOTION_DOT><MEAN_MOTION_DDOT>0</MEAN_MOTION_DDOT></tleParameters></data></segment></body></omm>
<omm id="CCSDS_OMM_VERS" version="2.0">
<header><CREATION_DATE/><ORIGINATOR/></header><body><segment><metadata><OBJECT_NAME>KUIPER-00093</OBJECT_NAME><OBJECT_ID>2025-151Y</OBJECT_ID><CENTER_NAME>EARTH</CENTER_NAME><REF_FRAME>TEME</REF_FRAME><TIME_SYSTEM>UTC</TIME_SYSTEM><MEAN_ELEMENT_THEORY>SGP4</MEAN_ELEMENT_THEORY></metadata><data><meanElements><EPOCH>2026-01-11T04:46:28.918848</EPOCH><MEAN_MOTION>14.79948230</MEAN_MOTION><ECCENTRICITY>.00032179</ECCENTRICITY><INCLINATION>51.8997</INCLINATION><RA_OF_ASC_NODE>187.3012</RA_OF_ASC_NODE><ARG_OF_PERICENTER>105.1322</ARG_OF_PERICENTER><MEAN_ANOMALY>254.9996</MEAN_ANOMALY></meanElements><tleParameters><EPHEMERIS_TYPE>0</EPHEMERIS_TYPE><CLASSIFICATION_TYPE>U</CLASSIFICATION_TYPE><NORAD_CAT_ID>64838</NORAD_CAT_ID><ELEMENT_SET_NO>999</ELEMENT_SET_NO><REV_AT_EPOCH>2689</REV_AT_EPOCH><BSTAR>.47280111E-3</BSTAR><MEAN_MOTION_DOT>.3386E-4</MEAN_MOTION_DOT><MEAN_MOTION_DDOT>0</MEAN_MOTION_DDOT></tleParameters></data></segment></body></omm>
<omm id="CCSDS_OMM_VERS" version="2.0">
<header><CREATION_DATE/><ORIGINATOR/></header><body><segment><metadata><OBJECT_NAME>KUIPER-00094</OBJECT_NAME><OBJECT_ID>2025-151Z</OBJECT_ID><CENTER_NAME>EARTH</CENTER_NAME><REF_FRAME>TEME</REF_FRAME><TIME_SYSTEM>UTC</TIME_SYSTEM><MEAN_ELEMENT_THEORY>SGP4</MEAN_ELEMENT_THEORY></metadata><data><meanElements><EPOCH>2026-01-11T03:22:38.536320</EPOCH><MEAN_MOTION>15.05204742</MEAN_MOTION><ECCENTRICITY>.00045911</ECCENTRICITY><INCLINATION>51.8893</INCLINATION><RA_OF_ASC_NODE>167.0862</RA_OF_ASC_NODE><ARG_OF_PERICENTER>84.0026</ARG_OF_PERICENTER><MEAN_ANOMALY>276.1471</MEAN_ANOMALY></meanElements><tleParameters><EPHEMERIS_TYPE>0</EPHEMERIS_TYPE><CLASSIFICATION_TYPE>U</CLASSIFICATION_TYPE><NORAD_CAT_ID>64839</NORAD_CAT_ID><ELEMENT_SET_NO>999</ELEMENT_SET_NO><REV_AT_EPOCH>2717</REV_AT_EPOCH><BSTAR>.50027104E-3</BSTAR><MEAN_MOTION_DOT>.6949E-4</MEAN_MOTION_DOT><MEAN_MOTION_DDOT>0</MEAN_MOTION_DDOT></tleParameters></data></segment></body></omm>
<omm id="CCSDS_OMM_VERS" version="2.0">
<header><CREATION_DATE/><ORIGINATOR/></header><body><segment><metadata><OBJECT_NAME>KUIPER-00081</OBJECT_NAME><OBJECT_ID>2025-171A</OBJECT_ID><CENTER_NAME>EARTH</CENTER_NAME><REF_FRAME>TEME</REF_FRAME><TIME_SYSTEM>UTC</TIME_SYSTEM><MEAN_ELEMENT_THEORY>SGP4</MEAN_ELEMENT_THEORY></metadata><data><meanElements><EPOCH>2026-01-11T07:43:04.106784</EPOCH><MEAN_MOTION>14.79945909</MEAN_MOTION><ECCENTRICITY>.00013325</ECCENTRICITY><INCLINATION>51.9006</INCLINATION><RA_OF_ASC_NODE>41.7534</RA_OF_ASC_NODE><ARG_OF_PERICENTER>60.3381</ARG_OF_PERICENTER><MEAN_ANOMALY>299.7714</MEAN_ANOMALY></meanElements><tleParameters><EPHEMERIS_TYPE>0</EPHEMERIS_TYPE><CLASSIFICATION_TYPE>U</CLASSIFICATION_TYPE><NORAD_CAT_ID>65132</NORAD_CAT_ID><ELEMENT_SET_NO>999</ELEMENT_SET_NO><REV_AT_EPOCH>2454</REV_AT_EPOCH><BSTAR>.27215416E-2</BSTAR><MEAN_MOTION_DOT>.20596E-3</MEAN_MOTION_DOT><MEAN_MOTION_DDOT>0</MEAN_MOTION_DDOT></tleParameters></data></segment></body></omm>
<omm id="CCSDS_OMM_VERS" version="2.0">
<header><CREATION_DATE/><ORIGINATOR/></header><body><segment><metadata><OBJECT_NAME>KUIPER-00088</OBJECT_NAME><OBJECT_ID>2025-171B</OBJECT_ID><CENTER_NAME>EARTH</CENTER_NAME><REF_FRAME>TEME</REF_FRAME><TIME_SYSTEM>UTC</TIME_SYSTEM><MEAN_ELEMENT_THEORY>SGP4</MEAN_ELEMENT_THEORY></metadata><data><meanElements><EPOCH>2026-01-11T08:00:01.999872</EPOCH><MEAN_MOTION>14.81475345</MEAN_MOTION><ECCENTRICITY>.00011122</ECCENTRICITY><INCLINATION>51.9003</INCLINATION><RA_OF_ASC_NODE>59.8308</RA_OF_ASC_NODE><ARG_OF_PERICENTER>134.4099</ARG_OF_PERICENTER><MEAN_ANOMALY>67.7090</MEAN_ANOMALY></meanElements><tleParameters><EPHEMERIS_TYPE>0</EPHEMERIS_TYPE><CLASSIFICATION_TYPE>U</CLASSIFICATION_TYPE><NORAD_CAT_ID>65133</NORAD_CAT_ID><ELEMENT_SET_NO>999</ELEMENT_SET_NO><REV_AT_EPOCH>565</REV_AT_EPOCH><BSTAR>-.2896288E-2</BSTAR><MEAN_MOTION_DOT>-.23054E-3</MEAN_MOTION_DOT><MEAN_MOTION_DDOT>0</MEAN_MOTION_DDOT></tleParameters></data></segment></body></omm>

</ndm>
